[{"OBJECT_NAME":"ION SCV-011","OBJECT_ID":"2023-084AB","EPOCH":"2026-03-09T22:35:16.566144","MEAN_MOTION":15.27752464,"ECCENTRICITY":0.00079323,"INCLINATION":98.1356,"RA_OF_ASC_NODE":247.1056,"ARG_OF_PERICENTER":30.3898,"MEAN_ANOMALY":329.7798,"EPHEMERIS_TYPE":0,"CLASSIFICATION_TYPE":"U","NORAD_CAT_ID":56957,"ELEMENT_SET_NO":999,"REV_AT_EPOCH":15065,"BSTAR":0.0002590454,"MEAN_MOTION_DOT":6.943e-5,"MEAN_MOTION_DDOT":0},{"OBJECT_NAME":"STARLINK-30520","OBJECT_ID":"2023-153V","EPOCH":"2026-03-09T01:19:10.735104","MEAN_MOTION":15.27581814,"ECCENTRICITY":0.00015472,"INCLINATION":43.0017,"RA_OF_ASC_NODE":70.2477,"ARG_OF_PERICENTER":267.8325,"MEAN_ANOMALY":92.2349,"EPHEMERIS_TYPE":0,"CLASSIFICATION_TYPE":"U","NORAD_CAT_ID":58010,"ELEMENT_SET_NO":999,"REV_AT_EPOCH":13470,"BSTAR":3.2147036e-5,"MEAN_MOTION_DOT":6.23e-6,"MEAN_MOTION_DDOT":0}]
